{
    "links": {
        "self": "http://www.neowsapp.com/rest/v1/neo/3311675?api_key=iIulBulltgU6a56xZRHN4H3l9WmuAYTsLGpBGhQ2"
    },
    "id": "3311675",
    "neo_reference_id": "3311675",
    "name": "(2006 AB3)",
    "designation": "2006 AB3",
    "nasa_jpl_url": "http://ssd.jpl.nasa.gov/sbdb.cgi?sstr=3311675",
    "absolute_magnitude_h": 26.8,
    "estimated_diameter": {
        "kilometers": {
            "estimated_diameter_min": 0.0116025908,
            "estimated_diameter_max": 0.0259441818
        },
        "meters": {
            "estimated_diameter_min": 11.6025908209,
            "estimated_diameter_max": 25.9441817907
        },
        "miles": {
            "estimated_diameter_min": 0.0072095135,
            "estimated_diameter_max": 0.0161209622
        },
        "feet": {
            "estimated_diameter_min": 38.066244069,
            "estimated_diameter_max": 85.1187093863
        }
    },
    "is_potentially_hazardous_asteroid": false,
    "close_approach_data": [
        {
            "close_approach_date": "2006-01-04",
            "close_approach_date_full": "2006-Jan-04 17:50",
            "epoch_date_close_approach": 1136397000000,
            "relative_velocity": {
                "kilometers_per_second": "7.0991418925",
                "kilometers_per_hour": "25556.9108130639",
                "miles_per_hour": "15880.070499373"
            },
            "miss_distance": {
                "astronomical": "0.0346030999",
                "lunar": "13.4606058611",
                "kilometers": "5176550.040437213",
                "miles": "3216559.0413030194"
            },
            "orbiting_body": "Earth"
        }
    ],
    "orbital_data": {
        "orbit_id": "8",
        "orbit_determination_date": "2017-04-06 09:09:30",
        "first_observation_date": "2006-01-04",
        "last_observation_date": "2006-01-07",
        "data_arc_in_days": 3,
        "observations_used": 21,
        "orbit_uncertainty": "8",
        "minimum_orbit_intersection": ".0297007",
        "jupiter_tisserand_invariant": "4.066",
        "epoch_osculation": "2453741.5",
        "eccentricity": ".4115910289447441",
        "semi_major_axis": "1.716997943223953",
        "inclination": "8.430081522816835",
        "ascending_node_longitude": "285.1183552081764",
        "orbital_period": "821.7753107287489",
        "perihelion_distance": "1.010296993076397",
        "perihelion_argument": "189.2999870364929",
        "aphelion_distance": "2.423698893371509",
        "perihelion_time": "2453748.388011693382",
        "mean_anomaly": "356.9825277332577",
        "mean_motion": ".438075950080263",
        "equinox": "J2000",
        "orbit_class": {
            "orbit_class_type": "APO",
            "orbit_class_description": "Near-Earth asteroid orbits which cross the Earth’s orbit similar to that of 1862 Apollo",
            "orbit_class_range": "a (semi-major axis) > 1.0 AU; q (perihelion) < 1.017 AU"
        }
    },
    "is_sentry_object": false
}